First least square run :: 
63708.33142  0.106945691837  9.00927525655e-10  0.66  87.3479635101  
Convergence OK -> poursuite du programme
 
 Sommes des résidus par camera : 
              camera               sigma                   s                   n                 Sum        Sum expected                  s'
              ITPU02      0.555006314033      0.538368182137                  15       19.1673706434        1.9262854003       2.31326934282
              ITPU01      0.602222026896      0.217662125466                  14       68.1805928667       5.59549053497       2.14157771958
 Sum Expected Total :: 7.52177593527
 
 Sommes des résidus par camera 2 : 
              camera               sigma                   s                   n                 Sum        Sum expected                  s'
              ITPU02      0.555006314033       2.37509059869                  15      0.826933843174       1.05078016949                   0
              ITPU01      0.602222026896        2.1526104919                  14        1.1993665198       1.07227306974      0.769551392615
 Sum Expected Total :: 2.12305323922
 
Parametre  de la meilleure solution par moindre carré :: 
 V  = 63722.9311068 m/s
 A  = 0.0924761524522 m²/kg
 B  = 9.0821229451e-10 m²/J
 mu = 0.66
 
S_min : 2.02630036297
 
 
 Estimation Parametre par Moyenne pondérée (si cette estimation est très différente de la précédente, cela peut être le signe d'un problème) :: 
 V  = 64170.9016489 m/s
 A  = 0.170077107873 m²/kg
 B  = 4.79567996184e-10 m²/J
 
 Parametre Maria :: 
 gamma = 67.9917767189°
 Alpha = 460.64018023
 Beta  = 6.77950575964
 
Final Mass : 2.18921496148e-07 %
 
         rho(Kg/m³)               Re(m)              Me(Kg)               Rf(m)              Mf(Kg)
                1500    0.00540679933952    0.00099311747664   7.02052711832e-06   2.17414763837e-12
                2500    0.00324407960371    0.00035752229159   4.21231627099e-06   7.82693149812e-13
                3500    0.00231719971694   0.000182409332444   3.00879733642e-06     3.993332397e-13
                4500    0.00180226644651   0.000110346386293   2.34017570611e-06   2.41571959818e-13
                5500    0.00147458163805   7.38682420641e-05   1.91468921409e-06   1.61713460705e-13
                6500     0.0012477229245   5.28879129571e-05   1.62012164269e-06   1.15783010327e-13
 
Matrix of Covariance : 
    |                   Ve |                    A |                    B | 
Ve  |        877809.075554 |        73.8767788312 |   -1.90453104975e-07 | 
A   |        73.8767788312 |      0.0108948540116 |    -3.8513265114e-11 | 
B   |   -1.90453104975e-07 |    -3.8513265114e-11 |    2.64973557307e-19 | 
 
 
 Time shift :: 
ITPU02 : -0.00653452801041 s
ITPU01 : 0.00653452801041 s
 
 
 Transposed Jacobian Matrix :: 
       |             Ve(m/s) |                    A |                    B | 
dx1(m) |      0.946068650998 |    5.83069458498e-05 |    4.40330016297e-14 | 
dx2(m) |      -1.34352458734 |    1.73126282938e-05 |    5.24867312756e-14 | 
dx3(m) |     -0.583126007464 |   -3.43516671871e-05 |   -8.11831450847e-14 | 
dx4(m) |      0.913772789048 |   -1.39032254541e-05 |   -1.48643843766e-13 | 
 
 Propagation des Variances :: 
        |              Ve(m/s) |                    A |                    B | 
Ve(m/s) |        8534.43299515 |     -0.0985227185975 |   -6.49992467843e-10 | 
A       |     -0.0985227185975 |    9.77741700935e-06 |    2.74459609249e-14 | 
B       |   -6.49992467843e-10 |    2.74459609249e-14 |    1.07151674881e-22 | 
 
 Variances Totales :: 
        |              Ve(m/s) |                    A |                    B | 
Ve(m/s) |        886343.508549 |        73.7782561126 |   -1.91103097443e-07 | 
A       |        73.7782561126 |      0.0109046314286 |   -3.84858191531e-11 | 
B       |   -1.91103097443e-07 |   -3.84858191531e-11 |    2.65080708982e-19 | 
 
sigma Ve : 941.45818205 m/s
sigma A  : 0.104425243254 m^2/Kg
sigma B  : 5.14859892575e-10 m^2/J
 
sigma Me (relatif) : 338.763801753 %
sigma Mf (relatif) : 2542.78524896 %
 
A/B : 101.822176391 MJ/Kg
sigma A/B : 128.654639052 MJ/Kg
 
    Remarque : A/B decrit la solidité du bolide. Il doit être entre 50 et 8000 MJ/Kg 
 
 
 
 
------------------------------------------------------------------------ 
------------------------------------------------------------------------ 
------------------------------------------------------------------------ 
 
 
  ORBITE :: 
Perifocal Distance              :: 0.296210736414 AU
Eccentricity                    :: 0.982374399958
Inclination                     :: 154.629956673 °
Longitude of the ascending node :: 279.868936286 °
Argument of periapsis           :: 294.211598146 °
Mean anomaly at epoch           :: 359.461143356 °
Epoch                           :: 2019-12-30T17:45:18.968
Semi-major axe                  :: 16.8057107676 AU
 
Moon near encounter             :: 409589.021322km   ( 235.748256775 moon radius )
Tisserand_J                     :: -0.297505776029
Tisserand_S                     :: -0.0396285544147
Tisserand_U                     :: 0.534717876598
Tisserand_N                     :: 1.18217635964
 
 
  Transposed Jacobian Matrix  :: 
        |        Per dist(AU) |                  ecc |                  Inc |                 Long |                  Arg |              Mean an |                Epoch |                    a | 
dx1(km) |    -0.0148788876851 |      0.0171192830218 |       -2.16832116407 |   -0.000221114083833 |        1.14123305495 |       0.536080431168 |       -51.1385097504 |        538.837961901 |  
dx2(km) |      0.018806899348 |    -0.00404042029937 |       -2.70516375235 |   -0.000271309258947 |       -2.22643398805 |      -0.138774310906 |       -101.741245747 |       -2.26600154568 |  
dx3(km) |     0.0157546062311 |     -0.0182565757881 |        2.06046219459 |    0.000249069443816 |       -1.19854748556 |       -0.94026156443 |        -119.48867774 |       -8.11155174779 |  
dx4(km) |    -0.0174925351734 |     0.00423755525981 |        2.85224774987 |    0.000355202435643 |        2.07598752888 |       0.152814422497 |       -79.3191559315 |        4.01272880081 |  
V(km/s) |     0.0158937780381 |      0.0198304028323 |       0.542835190704 |    -0.00014694749886 |       -2.95168465617 |       0.964468720628 |        26702.3047447 |        19.5892993512 |  
 
 Variances :: 
             |        Per dist(AU) |                  ecc |                  Inc |                 Long |                  Arg |              Mean an |             Epoch(s) |                    a | 
Per dist(AU) |   0.000225918158332 |    0.000278812522013 |     0.00737212687016 |   -2.10069013409e-06 |     -0.0418163289216 |      0.0135693146091 |        376.162477767 |       0.270252033656 |  
ecc          |   0.000278812522013 |    0.000349183801689 |     0.00946106373825 |   -2.59194459044e-06 |     -0.0518391003972 |      0.0169772004007 |        469.335916897 |       0.356120090664 |  
Inc          |    0.00737212687016 |     0.00946106373825 |       0.347795220109 |   -6.09871222873e-05 |       -1.38109393314 |       0.459922723669 |        12847.4485196 |        6.96538795835 |  
Long         |  -2.10069013409e-06 |   -2.59194459044e-06 |   -6.09871222873e-05 |    2.02323112312e-08 |    0.000388802268663 |   -0.000126091207704 |       -3.47788409565 |    -0.00282000067422 |  
Arg          |    -0.0418163289216 |     -0.0518391003972 |       -1.38109393314 |    0.000388802268663 |        7.75059019289 |       -2.52214601307 |       -69858.5408921 |       -51.0499389804 |  
Mean an      |     0.0135693146091 |      0.0169772004007 |       0.459922723669 |   -0.000126091207704 |       -2.52214601307 |       0.825507096271 |        22826.5603139 |        17.1966578124 |  
Epoch(s)     |       376.162477767 |        469.335916897 |        12847.4485196 |       -3.47788409565 |       -69858.5408921 |        22826.5603139 |        631974548.194 |        463624.438666 |  
a            |      0.270252033656 |       0.356120090664 |        6.96538795835 |    -0.00282000067422 |       -51.0499389804 |        17.1966578124 |        463624.438666 |        619.097157969 |  
 
     Ecarts types :: 
Per dist(AU) :     0.0150305741185 
ecc          :     0.0186864603842 
Inc          :      0.589741655396 
Long         :   0.000142240329131 
Arg          :       2.78398818117 
Mean an      :      0.908574210657 
Epoch(s)     :       25139.1039656 
a            :       24.8816630869 
